STARLINK-2130           
1 47405U 21005BJ  21131.91667824 -.00031183  00000-0 -20833-2 0  9995
2 47405  53.0545  55.0011 0001880  71.5666  67.3565 15.06406742  1800
STARLINK-2133           
1 47406U 21005BK  21132.17946046 -.00537060  00000-0 -16076-1 0  9999
2 47406  53.0536  25.0643 0000524   7.1878 352.9132 15.36226411 18406
STARLINK-2134           
1 47407U 21005BL  21131.91667824 -.01076147  00000-0 -33872-1 0  9993
2 47407  53.0530  26.3291 0001167  76.3847 249.9219 15.35176496  1827
STARLINK-2135           
1 47408U 21005BM  21131.91667824 -.01079334  00000-0 -31954-1 0  9994
2 47408  53.0576  26.3225 0001207  69.3823 328.9489 15.37077105  1822
STARLINK-2199           
1 47413U 21006A   21132.17616037  .00001151  00000-0  66404-4 0  9990
2 47413  97.4961 194.3454 0009573 245.4336 114.5898 15.14321337 16584
STARLINK-2200           
1 47414U 21006B   21132.11031453  .00001981  00000-0  11169-3 0  9996
2 47414  97.4960 194.2764 0009618 247.9026 112.1185 15.14319048 16578
STARLINK-2201           
1 47415U 21006C   21132.05002261 -.00262792  00000-0 -16083-1 0  9994
2 47415  97.4959 194.2017 0008635 242.4390 117.5963 15.11492795 16560
STARLINK-2202           
1 47416U 21006D   21131.71567885  .00000813  00000-0  47949-4 0  9995
2 47416  97.4956 193.8817 0009135 252.7097 107.3136 15.14325066 16518
STARLINK-2203           
1 47417U 21006E   21131.78061305  .00000928  00000-0  54232-4 0  9999
2 47417  97.4961 193.9495 0008672 254.4290 105.5984 15.14330816 16528
STARLINK-2204           
1 47418U 21006F   21132.11149417  .00022122  00000-0  12104-2 0  9999
2 47418  97.4987 194.2741 0009635 260.9845  99.0297 15.14227021 16575
STARLINK-2205           
1 47419U 21006G   21131.71475958  .00001095  00000-0  63342-4 0  9995
2 47419  97.4961 193.8838 0008901 248.4751 111.5532 15.14331821 16512
STARLINK-2206           
1 47420U 21006H   21131.71498869 -.00001020  00000-0 -52083-4 0  9993
2 47420  97.4960 193.8849 0009162 252.9060 107.1168 15.14321041 16517
STARLINK-2207           
1 47421U 21006J   21130.72322830  .00120500  00000-0  62967-2 0  9991
2 47421  97.4960 192.9098 0017465 270.5092  89.4139 15.15212590 16362
STARLINK-2208           
1 47422U 21006K   21132.11053835  .00001284  00000-0  73624-4 0  9994
2 47422  97.4963 194.2798 0008727 246.6855 113.3459 15.14330091 16571
STARLINK-1782           
1 47548U 21009A   21132.25001157 -.00541348  00000-0 -75915-2 0  9996
2 47548  53.0532   9.5910 0008608 294.0145 225.5493 15.57877726 15819
STARLINK-1806           
1 47549U 21009B   21132.25001157 -.00089898  00000-0 -10481-2 0  9991
2 47549  53.0539   9.2184 0002222 266.2539  78.1442 15.61204424 15811
STARLINK-1909           
1 47550U 21009C   21131.91667824 -.00045702  00000-0 -49577-3 0  9999
2 47550  53.0558  10.8011 0003896   8.6076 287.5138 15.62758461  1823
STARLINK-1938           
1 47551U 21009D   21132.25001157 -.01108620  00000-0 -71866-1 0  9993
2 47551  53.0514  13.5481 0001215  85.8398 283.1224 15.10603852 15755
STARLINK-1940           
1 47552U 21009E   21131.91667824 -.00080302  00000-0 -87824-3 0  9993
2 47552  53.0542  10.8196 0004076   2.3966 281.0077 15.62787050  1874
STARLINK-1951           
1 47553U 21009F   21131.91667824 -.00433733  00000-0 -87130-2 0  9993
2 47553  53.0576  11.7602 0002668 288.5177 262.6293 15.47680102  1879
STARLINK-1953           
1 47554U 21009G   21131.91667824 -.00489169  00000-0 -33620-1 0  9992
2 47554  53.0516  25.0454 0003899 294.4888  21.4497 15.07636481  1806
STARLINK-1954           
1 47555U 21009H   21132.25001157 -.01056884  00000-0 -66671-1 0  9999
2 47555  53.0587  13.5609 0001324  80.7788   1.8726 15.11445116 15760
STARLINK-1955           
1 47556U 21009J   21131.91667824 -.00025346  00000-0 -16887-2 0  9994
2 47556  53.0553  35.0015 0002147  75.0205 188.7868 15.06398918  1802
STARLINK-1956           
1 47557U 21009K   21131.91667824 -.00032364  00000-0 -21633-2 0  9998
2 47557  53.0578  35.0012 0002420  80.8847  22.7835 15.06404636  1803
STARLINK-1957           
1 47558U 21009L   21132.25001157 -.00904321  00000-0 -11913-1 0  9998
2 47558  53.0517   9.2065 0004080   0.7795   0.1067 15.60310732 15811
STARLINK-1958           
1 47559U 21009M   21132.25001157 -.00058816  00000-0 -64059-3 0  9999
2 47559  53.0537   9.1570 0004179 357.2698  17.1185 15.62762394 15811
STARLINK-1959           
1 47560U 21009N   21132.25001157 -.00064248  00000-0 -70126-3 0  9999
2 47560  53.0553   9.1620 0003260  13.7277   1.9787 15.62749906 15817
STARLINK-1960           
1 47561U 21009P   21131.91667824 -.00465760  00000-0 -19600-1 0  9993
2 47561  53.0576  16.0062 0005277 289.2093 314.1462 15.24972507  1813
STARLINK-1961           
1 47562U 21009Q   21131.91667824 -.01057891  00000-0 -65754-1 0  9998
2 47562  53.0568  15.0597 0001309  74.7729 334.4848 15.11977149  1863
STARLINK-1962           
1 47563U 21009R   21131.91667824 -.01109760  00000-0 -71734-1 0  9997
2 47563  53.0495  15.0396 0001281  90.4062 209.2080 15.10709511  1855
STARLINK-1963           
1 47564U 21009S   21131.91667824 -.00060280  00000-0 -65670-3 0  9994
2 47564  53.0539  10.8215 0003887   7.4722 274.6611 15.62768285  1871
STARLINK-1964           
1 47565U 21009T   21132.25001157 -.00622699  00000-0 -72606-2 0  9998
2 47565  53.0537   9.1896 0004315 359.8512 359.2747 15.62972683 15812
STARLINK-1965           
1 47566U 21009U   21132.25001157 -.00062236  00000-0 -67886-3 0  9999
2 47566  53.0538   9.1675 0004304   3.8273   9.3119 15.62746984 15816
STARLINK-1966           
1 47567U 21009V   21131.91667824 -.00028912  00000-0 -19289-2 0  9997
2 47567  53.0562  35.0079 0001976  74.9529  88.7982 15.06418483  1806
STARLINK-1967           
1 47568U 21009W   21132.25001157  .00003968  00000-0  28519-3 0  9996
2 47568  53.0566  33.5177 0002387  79.9630 312.4749 15.06389781 15483
STARLINK-1968           
1 47569U 21009X   21131.91667824 -.00295918  00000-0 -66575-2 0  9991
2 47569  53.0552  17.9178 0005301 285.1899 105.5717 15.43853537  1828
STARLINK-1969           
1 47570U 21009Y   21131.91667824 -.00080520  00000-0 -88098-3 0  9999
2 47570  53.0540  10.7862 0004200   0.2555 298.4001 15.62776899  1824
STARLINK-1970           
1 47571U 21009Z   21131.91667824  .00008748  00000-0  12152-3 0  9998
2 47571  53.0536  11.1963 0001477  43.1512  53.0620 15.57903554  1870
STARLINK-1971           
1 47572U 21009AA  21131.91667824 -.00101996  00000-0 -11197-2 0  9997
2 47572  53.0544  10.8165 0003277  14.1023 273.1118 15.62799966  1878
STARLINK-1975           
1 47573U 21009AB  21132.25001157 -.00114067  00000-0 -12560-2 0  9995
2 47573  53.0557   9.1881 0004136   3.8398   3.5821 15.62769345 15817
STARLINK-1976           
1 47574U 21009AC  21131.91667824 -.00078815  00000-0 -53259-2 0  9997
2 47574  53.0542  35.0161 0002308  78.2954  65.4946 15.06434394  1804
STARLINK-1977           
1 47575U 21009AD  21131.91667824 -.00026356  00000-0 -17568-2 0  9994
2 47575  53.0558  35.0057 0002280  75.7007 128.0855 15.06402564  1805
STARLINK-1978           
1 47576U 21009AE  21131.91667824  .00003094  00000-0  39653-4 0  9998
2 47576  53.0542  10.7873 0003450  16.2087 281.1893 15.62739531  1827
STARLINK-1979           
1 47577U 21009AF  21131.91667824 -.00011585  00000-0 -28780-3 0  9993
2 47577  53.0552  11.9151 0001409  77.4981  28.6604 15.38796924  1821
STARLINK-1980           
1 47578U 21009AG  21131.91667824 -.01128491  00000-0 -76161-1 0  9994
2 47578  53.0516  15.0758 0001587  61.1241 126.5819 15.09200284  1807
STARLINK-1981           
1 47579U 21009AH  21131.91667824 -.00041560  00000-0 -44997-3 0  9999
2 47579  53.0541  10.8247 0004004   2.9168 278.5857 15.62763716  1870
STARLINK-1982           
1 47580U 21009AJ  21131.91667824 -.01128698  00000-0 -76739-1 0  9997
2 47580  53.0526  15.1223 0001599  60.9451 107.8248 15.08933285  1803
STARLINK-1984           
1 47581U 21009AK  21131.91667824 -.00089853  00000-0 -98418-3 0  9996
2 47581  53.0541  10.7934 0004009   8.5867 286.2166 15.62796933  1829
STARLINK-1986           
1 47582U 21009AL  21131.91667824 -.01056149  00000-0 -67232-1 0  9998
2 47582  53.0523  15.0455 0001239  90.9278 245.4478 15.11118205  1860
STARLINK-1987           
1 47583U 21009AM  21131.91667824 -.01058278  00000-0 -64990-1 0  9992
2 47583  53.0555  15.0355 0001412  67.3971  18.0011 15.12407471  1815
STARLINK-1988           
1 47584U 21009AN  21132.25001157 -.00061319  00000-0 -66863-3 0  9994
2 47584  53.0541   9.1721 0004138   2.6278   6.7091 15.62750348 15818
STARLINK-1989           
1 47585U 21009AP  21131.91667824 -.00478157  00000-0 -20679-1 0  9991
2 47585  53.0490  16.1431 0004290 298.5806 180.7964 15.24127284  1812
STARLINK-1990           
1 47586U 21009AQ  21132.25001157 -.00023823  00000-0 -15853-2 0  9996
2 47586  53.0550  33.5082 0002506  73.5403 358.9204 15.06407997 15483
STARLINK-1991           
1 47587U 21009AR  21132.25001157 -.00539183  00000-0 -74815-2 0  9991
2 47587  53.0531   9.5631 0008022 295.7170 239.9029 15.58159035 15818
STARLINK-1993           
1 47588U 21009AS  21131.91667824 -.01058565  00000-0 -64610-1 0  9995
2 47588  53.0608  15.0158 0001456  66.7659  36.6083 15.12626532  1865
STARLINK-1994           
1 47589U 21009AT  21131.91667824 -.01057063  00000-0 -66497-1 0  9993
2 47589  53.0563  15.0530 0001251  79.2481 293.6541 15.11545565  1864
STARLINK-1995           
1 47590U 21009AU  21131.91667824 -.00032714  00000-0 -21859-2 0  9994
2 47590  53.0556  35.0033 0002460  80.6289   3.1479 15.06423194  1808
STARLINK-1996           
1 47591U 21009AV  21131.91667824 -.01057502  00000-0 -66117-1 0  9993
2 47591  53.0558  15.0554 0001271  76.6183 314.7303 15.11766473  1863
STARLINK-1997           
1 47592U 21009AW  21131.91667824 -.00025261  00000-0 -16827-2 0  9994
2 47592  53.0565  35.0024 0002672  68.8323 174.9524 15.06403665 15424
